STARLINK-5015           
1 53931U 22119AX  25166.69907685  .00000466  00000+0  47387-4 0  9994
2 53931  53.2174  57.3475 0001267 101.6050 258.5084 15.08841390151733
STARLINK-4772           
1 53932U 22119AY  25167.40201412 -.00000927  00000+0 -40190-4 0  9999
2 53932  53.2184  54.6238 0001468  85.4527 274.6633 15.08830517151416
STARLINK-4782           
1 53933U 22119AZ  25166.98385110  .00007595  00000+0  49529-3 0  9990
2 53933  53.2186  61.2660 0001316  86.6940 273.4202 15.08798857151280
STARLINK-4775           
1 53934U 22119BA  25167.39832707  .00000719  00000+0  63267-4 0  9993
2 53934  53.2194  54.5988 0001384  89.4131 270.7020 15.08840199151416
STARLINK-5000           
1 53935U 22119BB  25167.04962435  .00000291  00000+0  36404-4 0  9996
2 53935  53.2192  45.9926 0001482  90.3665 269.7497 15.08839403151505
STARLINK-4791           
1 53936U 22119BC  25167.10388542 -.00000134  00000+0  96674-5 0  9998
2 53936  53.2179  55.6048 0001721  95.2937 264.8252 15.08841132151378
STARLINK-4633           
1 53964U 22125A   25166.89925128 -.00002074  00000+0 -11226-3 0  9992
2 53964  53.2194 341.9462 0001432  91.4336 268.6821 15.08834649149047
STARLINK-4578           
1 53965U 22125B   25166.89650941  .00000725  00000+0  63609-4 0  9993
2 53965  53.2189 341.9278 0001449  90.2746 269.8413 15.08840872149110
STARLINK-4635           
1 53966U 22125C   25166.75938708  .00000015  00000+0  19031-4 0  9991
2 53966  53.2182 342.4944 0001399  89.2711 270.8441 15.08841624149090
STARLINK-4634           
1 53967U 22125D   25166.75570782  .00000207  00000+0  31078-4 0  9994
2 53967  53.2182 342.4702 0001294  89.6804 270.4336 15.08838178149026
STARLINK-4629           
1 53968U 22125E   25166.87713240  .00000245  00000+0  33499-4 0  9997
2 53968  53.2181 341.8065 0001656  99.9184 260.1995 15.08840991149111
STARLINK-4468           
1 53969U 22125F   25166.75203749 -.00002446  00000+0 -13570-3 0  9997
2 53969  53.2193 342.4487 0001471  83.9090 276.2070 15.08825264149099
STARLINK-4567           
1 53970U 22125G   25166.75432186  .00000230  00000+0  32554-4 0  9999
2 53970  53.2193 337.4814 0001321  98.1554 261.9588 15.08840456149169
STARLINK-4639           
1 53971U 22125H   25166.89063296  .00107297  00000+0  44319-2 0  9998
2 53971  53.2197 339.0967 0001376 111.9010 248.2135 15.23164770149152
STARLINK-5156           
1 53973U 22125K   25166.87344547  .00000386  00000+0  42310-4 0  9991
2 53973  53.2183 341.7841 0001215  88.9216 271.1915 15.08839455149044
STARLINK-5159           
1 53974U 22125L   25167.43829165  .00000567  00000+0  53699-4 0  9992
2 53974  53.2187 318.9707 0001330  95.0534 265.0610 15.08838346149486
STARLINK-5137           
1 53975U 22125M   25166.44514943  .00000132  00000+0  26391-4 0  9995
2 53975  53.2192 338.4049 0001349  94.0560 266.0586 15.08834764149053
STARLINK-5134           
1 53976U 22125N   25167.41995495  .00001176  00000+0  91953-4 0  9994
2 53976  53.2186 319.5683 0001329  88.9188 271.1957 15.08839470149471
STARLINK-5094           
1 53977U 22125P   25167.15913319 -.00000100  00000+0  11819-4 0  9991
2 53977  53.2188 335.7347 0001364  92.5106 267.6042 15.08839720149227
STARLINK-5148           
1 53978U 22125Q   25166.74326927 -.00000393  00000+0 -66074-5 0  9998
2 53978  53.2178 337.4050 0001249  89.5074 270.6061 15.08839293149162
STARLINK-5123           
1 53979U 22125R   25167.47927932  .00001141  00000+0  89771-4 0  9991
2 53979  53.2190 334.1805 0001350  87.9986 272.1160 15.08840499149275
STARLINK-5133           
1 53980U 22125S   25167.18852924  .00000660  00000+0  59556-4 0  9992
2 53980  53.2179 335.2117 0001335  88.1031 272.0114 15.08839724149232
STARLINK-5149           
1 53981U 22125T   25166.85687548 -.00001218  00000+0 -58419-4 0  9993
2 53981  53.2197 321.7543 0001371 112.8733 247.2404 15.08841429149321
STARLINK-5120           
1 53982U 22125U   25167.15038240 -.00000188  00000+0  62845-5 0  9990
2 53982  53.2190 330.6986 0001319  90.6295 269.4848 15.08841225149291
STARLINK-5103           
1 53983U 22125V   25166.73176477 -.00000495  00000+0 -12991-4 0  9997
2 53983  53.2186 322.3782 0001331  97.1765 262.9378 15.08832536149300
STARLINK-5142           
1 53984U 22125W   25166.89648004  .00000880  00000+0  73385-4 0  9995
2 53984  53.2189 331.9572 0001343  94.9009 265.2136 15.08838967149184
STARLINK-5147           
1 53985U 22125X   25167.16880926  .00001049  00000+0  83999-4 0  9998
2 53985  53.2184 330.8129 0001267  88.3490 271.7647 15.08839000149292
STARLINK-5119           
1 53986U 22125Y   25166.84949992  .00000007  00000+0  18554-4 0  9990
2 53986  53.2188 321.6936 0001365  93.5574 266.5574 15.08840784149316
STARLINK-5113           
1 53988U 22125AA  25166.89279425  .00000547  00000+0  52436-4 0  9990
2 53988  53.2185 331.9353 0001422  95.9831 264.1323 15.08838363149257
STARLINK-5118           
1 53991U 22125AD  25166.81273478  .00000664  00000+0  59801-4 0  9991
2 53991  53.2190 322.1116 0001375  89.5161 270.5989 15.08838898149306
STARLINK-5108           
1 53992U 22125AE  25167.14669837  .00000236  00000+0  32924-4 0  9999
2 53992  53.2183 330.6758 0001283  86.8749 273.2390 15.08837954149291
STARLINK-5121           
1 53993U 22125AF  25166.85825000 -.00000126  00000+0  10196-4 0  9999
2 53993  53.2194 326.7274 0001402  93.9564 266.1588 15.08838332149246
STARLINK-5125           
1 53994U 22125AG  25166.87068470  .00000255  00000+0  34129-4 0  9996
2 53994  53.2203 331.7962 0001464  96.9349 263.1810 15.08838586149257
STARLINK-5097           
1 53995U 22125AH  25167.14301500 -.00000236  00000+0  32496-5 0  9998
2 53995  53.2193 330.6584 0001299  91.3893 268.7248 15.08837595149292
STARLINK-5131           
1 53996U 22125AJ  25166.73451907  .00001050  00000+0  84029-4 0  9992
2 53996  53.2178 332.3686 0001444  84.9330 275.1827 15.08838204149163
STARLINK-5130           
1 53997U 22125AK  25166.83484753  .00000168  00000+0  28624-4 0  9997
2 53997  53.2184 322.3042 0001374  81.1550 278.9598 15.08843192149316
STARLINK-5128           
1 53998U 22125AL  25167.45580109  .00003218  00000+0  22020-3 0  9991
2 53998  53.2181 329.0514 0001399  83.4474 276.6678 15.08837657149345
STARLINK-5079           
1 53999U 22125AM  25166.87436816  .00000504  00000+0  49759-4 0  9996
2 53999  53.2191 331.8189 0001432  97.1132 263.0023 15.08839970149251
STARLINK-5088           
1 54000U 22125AN  25166.43372265  .00000432  00000+0  45204-4 0  9990
2 54000  53.2182 324.0660 0001336  84.1206 275.9939 15.08835310149256
STARLINK-5109           
1 54002U 22125AQ  25167.38310999  .00001306  00000+0  10014-3 0  9994
2 54002  53.2187 319.3556 0001199  96.7280 263.3849 15.08833643149452
STARLINK-5114           
1 54003U 22125AR  25166.59835452  .00000318  00000+0  38036-4 0  9990
2 54003  53.2180 332.9403 0001301  88.6720 271.4421 15.08842199149140
STARLINK-5129           
1 54004U 22125AS  25166.45482193  .00001160  00000+0  90949-4 0  9993
2 54004  53.2184 333.4652 0001437  86.5899 273.5258 15.08836145149124
STARLINK-5135           
1 54005U 22125AT  25166.45851029  .00000588  00000+0  55056-4 0  9995
2 54005  53.2183 333.4885 0001260  81.1734 278.9401 15.08836562149172
STARLINK-5096           
1 54006U 22125AU  25166.77496904  .00000885  00000+0  73692-4 0  9994
2 54006  53.2192 331.9208 0001370  93.5531 266.5618 15.08837145149226
STARLINK-5132           
1 54007U 22125AV  25166.78234107 -.00000265  00000+0  14443-5 0  9994
2 54007  53.2184 331.9587 0001391  83.6166 276.4985 15.08836375149226
STARLINK-5145           
1 54008U 22125AW  25167.44200427 -.00002123  00000+0 -11544-3 0  9990
2 54008  53.2186 318.9965 0001103  80.1533 279.9583 15.08810199149469
STARLINK-5099           
1 54009U 22125AX  25167.44105324  .00000504  00000+0  49743-4 0  9993
2 54009  53.2186 328.9617 0001257  85.7143 274.3993 15.08836885149322
STARLINK-5127           
1 54010U 22125AY  25166.57349302  .00002552  00000+0  17837-3 0  9997
2 54010  53.2179 322.8243 0001051  93.5123 266.5989 15.08842845149287
STARLINK-5124           
1 54011U 22125AZ  25167.42363880  .00000106  00000+0  24745-4 0  9990
2 54011  53.2180 319.5850 0001334  86.8202 273.2943 15.08836505149454
STARLINK-5126           
1 54012U 22125BA  25166.73545480 -.00001474  00000+0 -74550-4 0  9992
2 54012  53.2176 322.4017 0001265  96.5504 263.5632 15.08822680149304
STARLINK-5098           
1 54013U 22125BB  25166.80906116 -.00000340  00000+0 -32999-5 0  9991
2 54013  53.2176 322.1483 0001304  88.4114 271.7027 15.08842773149315
STARLINK-5055           
1 54015U 22125BD  25166.73913254  .00000395  00000+0  42935-4 0  9994
2 54015  53.2185 322.4214 0001418  94.9129 265.2025 15.08835702149350
STARLINK-5195           
1 54051U 22136A   25167.22676628 -.00000017  00000+0  17028-4 0  9999
2 54051  53.2170 100.5641 0001223  89.0535 271.0597 15.08839544147099
STARLINK-5189           
1 54052U 22136B   25166.45023563  .00000614  00000+0  56687-4 0  9994
2 54052  53.2182  63.6182 0001510  80.2041 279.9121 15.08837023147557
STARLINK-5176           
1 54053U 22136C   25166.82564591 -.00000097  00000+0  11981-4 0  9991
2 54053  53.2171 102.3244 0001442  92.2666 267.8492 15.08834326146555
STARLINK-5163           
1 54054U 22136D   25167.54691114  .00000919  00000+0  75836-4 0  9995
2 54054  53.2170  99.0082 0001399  90.7546 269.3606 15.08842076147149
STARLINK-5158           
1 54055U 22136E   25166.95443585  .00000700  00000+0  62083-4 0  9995
2 54055  53.2169 101.7078 0001328  90.4721 269.6423 15.08837539147056
STARLINK-5226           
1 54056U 22136F   25166.96540597  .00000285  00000+0  35999-4 0  9992
2 54056  53.2177 101.0768 0001504  91.5288 268.5876 15.08839407147068
STARLINK-5167           
1 54058U 22136H   25167.00594330  .00000133  00000+0  26439-4 0  9995
2 54058  53.2170 101.3187 0001383  85.9958 274.1192 15.08837141147064
